     2.10           N: GNSS NAV DATA    E: Galileo          RINEX VERSION / TYPE
RTKCONV 2.4.2                           20231202 214903 UTC PGM / RUN BY / DATE 
log: C:\Users\adminlocal\Desktop\verniquet\verniquet\micro  COMMENT             
format: u-blox                                              COMMENT             
                                                            END OF HEADER       
E30 2023 12  2 15 10  0 -.709504995029E-03 -.307665004584E-10  .000000000000E+00
      .590000000000E+02  .270000000000E+02  .321727686964E-08  .916313605123E+00
      .123679637909E-05  .449781538919E-03  .754743814468E-05  .544062270546E+04
      .573000000000E+06 -.372529029846E-08 -.309573081988E+01  .242143869400E-07
      .965818818756E+00  .181687500000E+03  .711558678269E+00 -.547987111577E-08
     -.430017911972E-09  .100000000000E+01  .229000000000E+04  .000000000000E+00
      .327670000000E+05  .000000000000E+00  .279396772385E-08  .279396772385E-08
      .574189000000E+06  .000000000000E+00
E27 2023 12  2 15 10  0 -.214304018300E-03 -.937916411203E-11  .000000000000E+00
      .590000000000E+02  .259375000000E+02  .323942064916E-08  .891625503484E+00
      .124983489513E-05  .273692887276E-03  .740401446819E-05  .544061586761E+04
      .573000000000E+06  .596046447754E-07 -.309898700635E+01 -.167638063431E-07
      .967956766736E+00  .182687500000E+03 -.608672536283E-01 -.551951562427E-08
     -.434303804782E-09  .100000000000E+01  .229000000000E+04  .000000000000E+00
      .327670000000E+05  .000000000000E+00  .302679836750E-08  .302679836750E-08
      .574189000000E+06  .000000000000E+00
E 7 2023 12  2 15 10  0 -.909155933186E-04 -.201794136956E-11  .000000000000E+00
      .590000000000E+02 -.773125000000E+02  .308084261518E-08  .227445187395E+01
     -.355951488018E-05  .102258403786E-03  .905990600586E-05  .544061593246E+04
      .573000000000E+06 -.558793544769E-08  .108531710505E+01  .186264514923E-08
      .959718219225E+00  .148593750000E+03  .659656438253E+00 -.541772567002E-08
      .334299639208E-09  .100000000000E+01  .229000000000E+04  .000000000000E+00
      .327670000000E+05  .000000000000E+00  .535510480404E-08  .582076609135E-08
      .574189000000E+06  .000000000000E+00
E27 2023 12  2 15 20  0 -.214309548028E-03 -.936495325732E-11  .000000000000E+00
      .600000000000E+02  .258750000000E+02  .324263506877E-08  .966144910511E+00
      .124797224998E-05  .273690558970E-03  .739842653275E-05  .544061579514E+04
      .573600000000E+06  .633299350739E-07 -.309899035935E+01 -.372529029846E-08
      .967956468301E+00  .183000000000E+03 -.610013417736E-01 -.552058709747E-08
     -.426446334630E-09  .100000000000E+01  .229000000000E+04  .000000000000E+00
      .327670000000E+05  .000000000000E+00  .302679836750E-08  .302679836750E-08
      .574309000000E+06  .000000000000E+00
